*******************************************************************************
Ephemeris / WWW_USER Mon Mar 24 07:33:27 2025 Pasadena, USA      / Horizons    
*******************************************************************************
Target body name: (2018 RG5)                      {source: JPL#6}
Center body name: Earth (399)                     {source: DE441}
Center-site name: Mauna Kea
*******************************************************************************
Start time      : A.D. 2019-Jan-19 04:15:00.0000 UT      
Stop  time      : A.D. 2019-Jan-19 16:49:00.0000 UT      
Step-size       : 1 minutes
*******************************************************************************
Target pole/equ : undefined
Target radii    : undefined                                                    
Center geodetic : 204.5278, 19.8260847, 4.21024   {E-lon(deg),Lat(deg),Alt(km)}
Center cylindric: 204.5278, 6006.35451, 2151.0229 {E-lon(deg),Dxy(km),Dz(km)}
Center pole/equ : ITRF93                          {East-longitude positive}
Center radii    : 6378.137, 6378.137, 6356.752 km {Equator_a, b, pole_c}       
Target primary  : Sun
Vis. interferer : MOON (R_eq= 1737.400) km        {source: DE441}
Rel. light bend : Sun                             {source: DE441}
Rel. lght bnd GM: 1.3271E+11 km^3/s^2                                          
Small-body perts: Yes                             {source: SB441-N16}
Atmos refraction: NO (AIRLESS)
RA format       : HMS
Time format     : CAL 
Calendar mode   : Mixed Julian/Gregorian
RTS-only print  : NO       
EOP file        : eop.250321.p250617                                           
EOP coverage    : DATA-BASED 1962-JAN-20 TO 2025-MAR-21. PREDICTS-> 2025-JUN-16
Units conversion: 1 au= 149597870.700 km, c= 299792.458 km/s, 1 day= 86400.0 s 
Table cut-offs 1: Elevation (-90.0deg=NO ),Airmass (>38.000=NO), Daylight (YES)
Table cut-offs 2: Solar elongation (  0.0,180.0=NO ),Local Hour Angle( 0.0=NO )
Table cut-offs 3: RA/DEC angular rate (     0.0=NO )                           
*******************************************************************************
Initial IAU76/J2000 heliocentric ecliptic osculating elements (au, days, deg.):
  EPOCH=  2458374.5 ! 2018-Sep-13.00 (TDB)         Residual RMS= .44286        
   EC= .3970272763955992   QR= .9476094655819058   TP= 2458410.7007282218      
   OM= 172.9777515025259   W=  220.286388004559    IN= 6.065188755768435       
  Equivalent ICRF heliocentric cartesian coordinates (au, au/d):
   X= 1.011373795361920E+00  Y=-1.657289676662098E-01  Z=-6.569093016663846E-02
  VX=-6.707749535245534E-04 VY= 1.878070382659777E-02 VZ= 5.901532854039199E-03
Asteroid physical parameters (km, seconds, rotational period in hours):        
   GM= n.a.                RAD= n.a.               ROTPER= n.a.                
   H= 26.76                G= .150                 B-V= n.a.                   
                           ALBEDO= n.a.            STYP= n.a.                  
*******************************************************************************
 Date__(UT)__HR:MN     R.A._________(ICRF)_________DEC
******************************************************
$$SOE
 2019-Jan-19 04:15 Cm  09 08 15.941248 -00 56 48.97116
 2019-Jan-19 04:16 Cm  09 08 15.868242 -00 56 47.99719
 2019-Jan-19 04:17 Cm  09 08 15.795209 -00 56 47.02322
 2019-Jan-19 04:18 Cm  09 08 15.722148 -00 56 46.04924
 2019-Jan-19 04:19 Cm  09 08 15.649061 -00 56 45.07525
 2019-Jan-19 04:20 Cm  09 08 15.575947 -00 56 44.10126
 2019-Jan-19 04:21 Cm  09 08 15.502805 -00 56 43.12727
 2019-Jan-19 04:22 Cm  09 08 15.429637 -00 56 42.15328
 2019-Jan-19 04:23 Cm  09 08 15.356441 -00 56 41.17928
 2019-Jan-19 04:24 Cm  09 08 15.283217 -00 56 40.20527
 2019-Jan-19 04:25 Cm  09 08 15.209967 -00 56 39.23126
 2019-Jan-19 04:26 Cm  09 08 15.136689 -00 56 38.25725
 2019-Jan-19 04:27 Cm  09 08 15.063384 -00 56 37.28323
 2019-Jan-19 04:28 Cm  09 08 14.990051 -00 56 36.30921
 2019-Jan-19 04:29 Nm  09 08 14.916691 -00 56 35.33518
 2019-Jan-19 04:30 Nm  09 08 14.843303 -00 56 34.36115
 2019-Jan-19 04:31 Nm  09 08 14.769888 -00 56 33.38712
 2019-Jan-19 04:32 Nm  09 08 14.696445 -00 56 32.41308
 2019-Jan-19 04:33 Nm  09 08 14.622975 -00 56 31.43903
 2019-Jan-19 04:34 Nm  09 08 14.549477 -00 56 30.46498
 2019-Jan-19 04:35 Nm  09 08 14.475951 -00 56 29.49093
 2019-Jan-19 04:36 Nm  09 08 14.402398 -00 56 28.51687
 2019-Jan-19 04:37 Nm  09 08 14.328817 -00 56 27.54281
 2019-Jan-19 04:38 Nm  09 08 14.255208 -00 56 26.56874
 2019-Jan-19 04:39 Nm  09 08 14.181571 -00 56 25.59467
 2019-Jan-19 04:40 Nm  09 08 14.107906 -00 56 24.62059
 2019-Jan-19 04:41 Nm  09 08 14.034214 -00 56 23.64651
 2019-Jan-19 04:42 Nm  09 08 13.960493 -00 56 22.67242
 2019-Jan-19 04:43 Nm  09 08 13.886745 -00 56 21.69833
 2019-Jan-19 04:44 Nm  09 08 13.812969 -00 56 20.72423
 2019-Jan-19 04:45 Nm  09 08 13.739164 -00 56 19.75013
 2019-Jan-19 04:46 Nm  09 08 13.665332 -00 56 18.77603
 2019-Jan-19 04:47 Nm  09 08 13.591472 -00 56 17.80191
 2019-Jan-19 04:48 Nm  09 08 13.517583 -00 56 16.82780
 2019-Jan-19 04:49 Nm  09 08 13.443666 -00 56 15.85368
 2019-Jan-19 04:50 Nm  09 08 13.369722 -00 56 14.87955
 2019-Jan-19 04:51 Nm  09 08 13.295749 -00 56 13.90542
 2019-Jan-19 04:52 Nm  09 08 13.221748 -00 56 12.93128
 2019-Jan-19 04:53 Nm  09 08 13.147718 -00 56 11.95714
 2019-Jan-19 04:54 Nm  09 08 13.073661 -00 56 10.98299
 2019-Jan-19 04:55 Nm  09 08 12.999575 -00 56 10.00884
 2019-Jan-19 04:56 Am  09 08 12.925461 -00 56 09.03468
 2019-Jan-19 04:57 Am  09 08 12.851319 -00 56 08.06052
 2019-Jan-19 04:58 Am  09 08 12.777148 -00 56 07.08635
 2019-Jan-19 04:59 Am  09 08 12.702949 -00 56 06.11217
 2019-Jan-19 05:00 Am  09 08 12.628721 -00 56 05.13799
 2019-Jan-19 05:01 Am  09 08 12.554466 -00 56 04.16381
 2019-Jan-19 05:02 Am  09 08 12.480181 -00 56 03.18962
 2019-Jan-19 05:03 Am  09 08 12.405869 -00 56 02.21542
 2019-Jan-19 05:04 Am  09 08 12.331528 -00 56 01.24122
 2019-Jan-19 05:05 Am  09 08 12.257158 -00 56 00.26701
 2019-Jan-19 05:06 Am  09 08 12.182760 -00 55 59.29280
 2019-Jan-19 05:07 Am  09 08 12.108333 -00 55 58.31858
 2019-Jan-19 05:08 Am  09 08 12.033878 -00 55 57.34436
 2019-Jan-19 05:09 Am  09 08 11.959395 -00 55 56.37013
 2019-Jan-19 05:10 Am  09 08 11.884882 -00 55 55.39589
 2019-Jan-19 05:11 Am  09 08 11.810342 -00 55 54.42165
 2019-Jan-19 05:12 Am  09 08 11.735772 -00 55 53.44740
 2019-Jan-19 05:13 Am  09 08 11.661174 -00 55 52.47315
 2019-Jan-19 05:14 Am  09 08 11.586548 -00 55 51.49889
 2019-Jan-19 05:15 Am  09 08 11.511893 -00 55 50.52463
 2019-Jan-19 05:16 Am  09 08 11.437209 -00 55 49.55035
 2019-Jan-19 05:17 Am  09 08 11.362497 -00 55 48.57608
 2019-Jan-19 05:18 Am  09 08 11.287755 -00 55 47.60179
 2019-Jan-19 05:19 Am  09 08 11.212986 -00 55 46.62751
 2019-Jan-19 05:20 Am  09 08 11.138187 -00 55 45.65321
 2019-Jan-19 05:21 Am  09 08 11.063360 -00 55 44.67891
 2019-Jan-19 05:22 Am  09 08 10.988504 -00 55 43.70460
 2019-Jan-19 05:23  m  09 08 10.913620 -00 55 42.73029
 2019-Jan-19 05:24  m  09 08 10.838707 -00 55 41.75597
 2019-Jan-19 05:25  m  09 08 10.763765 -00 55 40.78164
 2019-Jan-19 05:26  m  09 08 10.688794 -00 55 39.80731
 2019-Jan-19 05:27  m  09 08 10.613795 -00 55 38.83297
 2019-Jan-19 05:28  r  09 08 10.538766 -00 55 37.85863
 2019-Jan-19 05:29  m  09 08 10.463709 -00 55 36.88427
 2019-Jan-19 05:30  m  09 08 10.388624 -00 55 35.90992
 2019-Jan-19 05:31  m  09 08 10.313509 -00 55 34.93555
 2019-Jan-19 05:32  m  09 08 10.238366 -00 55 33.96118
 2019-Jan-19 05:33  m  09 08 10.163194 -00 55 32.98680
 2019-Jan-19 05:34  m  09 08 10.087994 -00 55 32.01242
 2019-Jan-19 05:35  m  09 08 10.012764 -00 55 31.03803
 2019-Jan-19 05:36  m  09 08 09.937506 -00 55 30.06363
 2019-Jan-19 05:37  m  09 08 09.862219 -00 55 29.08923
 2019-Jan-19 05:38  m  09 08 09.786903 -00 55 28.11482
 2019-Jan-19 05:39  m  09 08 09.711559 -00 55 27.14040
 2019-Jan-19 05:40  m  09 08 09.636186 -00 55 26.16598
 2019-Jan-19 05:41  m  09 08 09.560784 -00 55 25.19155
 2019-Jan-19 05:42  m  09 08 09.485353 -00 55 24.21711
 2019-Jan-19 05:43  m  09 08 09.409893 -00 55 23.24266
 2019-Jan-19 05:44  m  09 08 09.334405 -00 55 22.26821
 2019-Jan-19 05:45  m  09 08 09.258888 -00 55 21.29376
 2019-Jan-19 05:46  m  09 08 09.183342 -00 55 20.31929
 2019-Jan-19 05:47  m  09 08 09.107768 -00 55 19.34482
 2019-Jan-19 05:48  m  09 08 09.032165 -00 55 18.37034
 2019-Jan-19 05:49  m  09 08 08.956533 -00 55 17.39585
 2019-Jan-19 05:50  m  09 08 08.880872 -00 55 16.42136
 2019-Jan-19 05:51  m  09 08 08.805183 -00 55 15.44686
 2019-Jan-19 05:52  m  09 08 08.729464 -00 55 14.47235
 2019-Jan-19 05:53  m  09 08 08.653718 -00 55 13.49784
 2019-Jan-19 05:54  m  09 08 08.577942 -00 55 12.52332
 2019-Jan-19 05:55  m  09 08 08.502138 -00 55 11.54879
 2019-Jan-19 05:56  m  09 08 08.426305 -00 55 10.57425
 2019-Jan-19 05:57  m  09 08 08.350443 -00 55 09.59971
 2019-Jan-19 05:58  m  09 08 08.274553 -00 55 08.62516
 2019-Jan-19 05:59  m  09 08 08.198634 -00 55 07.65060
 2019-Jan-19 06:00  m  09 08 08.122687 -00 55 06.67603
 2019-Jan-19 06:01  m  09 08 08.046711 -00 55 05.70146
 2019-Jan-19 06:02  m  09 08 07.970706 -00 55 04.72688
 2019-Jan-19 06:03  m  09 08 07.894673 -00 55 03.75229
 2019-Jan-19 06:04  m  09 08 07.818611 -00 55 02.77770
 2019-Jan-19 06:05  m  09 08 07.742521 -00 55 01.80309
 2019-Jan-19 06:06  m  09 08 07.666402 -00 55 00.82848
 2019-Jan-19 06:07  m  09 08 07.590254 -00 54 59.85387
 2019-Jan-19 06:08  m  09 08 07.514079 -00 54 58.87924
 2019-Jan-19 06:09  m  09 08 07.437874 -00 54 57.90461
 2019-Jan-19 06:10  m  09 08 07.361641 -00 54 56.92997
 2019-Jan-19 06:11  m  09 08 07.285380 -00 54 55.95532
 2019-Jan-19 06:12  m  09 08 07.209090 -00 54 54.98066
 2019-Jan-19 06:13  m  09 08 07.132772 -00 54 54.00600
 2019-Jan-19 06:14  m  09 08 07.056425 -00 54 53.03132
 2019-Jan-19 06:15  m  09 08 06.980050 -00 54 52.05664
 2019-Jan-19 06:16  m  09 08 06.903647 -00 54 51.08196
 2019-Jan-19 06:17  m  09 08 06.827215 -00 54 50.10726
